{
  "type": "FeatureCollection",
  "generator": "overpass-ide",
  "copyright": "The data included in this document is from www.openstreetmap.org. The data is made available under ODbL.",
  "timestamp": "2021-02-11T07:41:03Z",
  "features": [
    {
      "type": "Feature",
      "properties": {
        "@id": "node/247279762",
        "addr:city": "Milano",
        "addr:country": "IT",
        "addr:housenumber": "1",
        "addr:postcode": "20159",
        "addr:street": "Viale Fulvio Testi",
        "amenity": "bank",
        "brand": "UniCredit Bank",
        "brand:wikidata": "Q45568",
        "brand:wikipedia": "en:UniCredit",
        "name": "UniCredit Bank"
      },
      "geometry": {
        "type": "Point",
        "coordinates": [
          9.1978174,
          45.502398
        ]
      },
      "id": "node/247279762"
    },
    {
      "type": "Feature",
      "properties": {
        "@id": "node/249562196",
        "amenity": "bank",
        "atm": "yes",
        "brand": "Intesa Sanpaolo",
        "brand:wikidata": "Q1343118",
        "brand:wikipedia": "it:Intesa Sanpaolo",
        "drive_through": "no",
        "name": "Intesa Sanpaolo",
        "opening_hours": "Mo-Fr 08:05-13:00,14:15-18:30; Sa 09:00-13:00"
      },
      "geometry": {
        "type": "Point",
        "coordinates": [
          9.1976452,
          45.500301
        ]
      },
      "id": "node/249562196"
    },
    {
      "type": "Feature",
      "properties": {
        "@id": "node/250657226",
        "amenity": "post_office",
        "name": "Milano 58",
        "operator": "Poste Italiane"
      },
      "geometry": {
        "type": "Point",
        "coordinates": [
          9.1965393,
          45.4999659
        ]
      },
      "id": "node/250657226"
    },
    {
      "type": "Feature",
      "properties": {
        "@id": "node/254979070",
        "amenity": "post_office",
        "created_by": "JOSM",
        "name": "Milano 69",
        "operator": "Poste Italiane"
      },
      "geometry": {
        "type": "Point",
        "coordinates": [
          9.1944327,
          45.5162182
        ]
      },
      "id": "node/254979070"
    },
    {
      "type": "Feature",
      "properties": {
        "@id": "node/257048400",
        "addr:city": "Milano",
        "addr:country": "IT",
        "addr:postcode": "20162",
        "addr:street": "Viale Fulvio Testi",
        "amenity": "bank",
        "atm": "yes",
        "brand": "Intesa Sanpaolo",
        "brand:wikidata": "Q1343118",
        "brand:wikipedia": "it:Intesa Sanpaolo",
        "name": "Intesa Sanpaolo",
        "opening_hours": "Mo-Fr 08:30-13:30,14:15-16:15",
        "operator": "Intesa San Paolo",
        "phone": "+39 02 6416331",
        "wheelchair": "yes"
      },
      "geometry": {
        "type": "Point",
        "coordinates": [
          9.2004583,
          45.5067954
        ]
      },
      "id": "node/257048400"
    },
    {
      "type": "Feature",
      "properties": {
        "@id": "node/278197357",
        "amenity": "post_office",
        "name": "Milano 47",
        "opening_hours": "Mo-Fr 08:20-13:35; Sa 08:20-12:35",
        "operator": "Poste Italiane",
        "ref": "38261"
      },
      "geometry": {
        "type": "Point",
        "coordinates": [
          9.1787591,
          45.5001613
        ]
      },
      "id": "node/278197357"
    },
    {
      "type": "Feature",
      "properties": {
        "@id": "node/295548336",
        "amenity": "bank",
        "name": "Findomestic"
      },
      "geometry": {
        "type": "Point",
        "coordinates": [
          9.2200003,
          45.4962433
        ]
      },
      "id": "node/295548336"
    },
    {
      "type": "Feature",
      "properties": {
        "@id": "node/295548343",
        "amenity": "bank",
        "atm": "yes",
        "brand": "Intesa Sanpaolo",
        "brand:wikidata": "Q1343118",
        "brand:wikipedia": "it:Intesa Sanpaolo",
        "name": "Intesa Sanpaolo"
      },
      "geometry": {
        "type": "Point",
        "coordinates": [
          9.2195296,
          45.4962444
        ]
      },
      "id": "node/295548343"
    },
    {
      "type": "Feature",
      "properties": {
        "@id": "node/400938916",
        "amenity": "bank",
        "name": "Banca Intesa SanPaolo"
      },
      "geometry": {
        "type": "Point",
        "coordinates": [
          9.1916647,
          45.5175274
        ]
      },
      "id": "node/400938916"
    },
    {
      "type": "Feature",
      "properties": {
        "@id": "node/442073771",
        "amenity": "bank",
        "atm": "yes"
      },
      "geometry": {
        "type": "Point",
        "coordinates": [
          9.2040155,
          45.49239
        ]
      },
      "id": "node/442073771"
    },
    {
      "type": "Feature",
      "properties": {
        "@id": "node/446783371",
        "amenity": "bank",
        "atm": "yes",
        "brand": "UniCredit Bank",
        "brand:wikidata": "Q45568",
        "brand:wikipedia": "en:UniCredit",
        "name": "UniCredit Bank",
        "operator": "Unicredit"
      },
      "geometry": {
        "type": "Point",
        "coordinates": [
          9.2189855,
          45.4945694
        ]
      },
      "id": "node/446783371"
    },
    {
      "type": "Feature",
      "properties": {
        "@id": "node/726917442",
        "amenity": "bank",
        "atm": "yes",
        "name": "Banca Unicredit",
        "operator": "Unicredit",
        "wheelchair": "limited"
      },
      "geometry": {
        "type": "Point",
        "coordinates": [
          9.1851065,
          45.494443
        ]
      },
      "id": "node/726917442"
    },
    {
      "type": "Feature",
      "properties": {
        "@id": "node/758982513",
        "addr:city": "Milano",
        "addr:country": "IT",
        "addr:housenumber": "58",
        "addr:postcode": "20162",
        "addr:street": "Viale Giovanni Suzzani",
        "amenity": "post_office",
        "fax": "+39 02 6425336",
        "name": "Milano 97",
        "operator": "Poste Italiane",
        "phone": "+39 02 6470400",
        "ref": "38546"
      },
      "geometry": {
        "type": "Point",
        "coordinates": [
          9.1984568,
          45.5072704
        ]
      },
      "id": "node/758982513"
    },
    {
      "type": "Feature",
      "properties": {
        "@id": "node/1238567864",
        "amenity": "atm"
      },
      "geometry": {
        "type": "Point",
        "coordinates": [
          9.2113541,
          45.52316
        ]
      },
      "id": "node/1238567864"
    },
    {
      "type": "Feature",
      "properties": {
        "@id": "node/1295343791",
        "addr:street": "Via Alessandro Astesani",
        "amenity": "bank",
        "atm": "yes",
        "name": "UniCredit"
      },
      "geometry": {
        "type": "Point",
        "coordinates": [
          9.1695049,
          45.5199162
        ]
      },
      "id": "node/1295343791"
    },
    {
      "type": "Feature",
      "properties": {
        "@id": "node/1385858968",
        "addr:city": "Milano",
        "addr:country": "IT",
        "addr:housenumber": "40",
        "addr:postcode": "20159",
        "addr:street": "Viale Marche",
        "amenity": "bank",
        "brand": "UBI Banca",
        "brand:wikidata": "Q1476162",
        "brand:wikipedia": "en:UBI Banca",
        "name": "UBI Banca"
      },
      "geometry": {
        "type": "Point",
        "coordinates": [
          9.19381,
          45.4959623
        ]
      },
      "id": "node/1385858968"
    },
    {
      "type": "Feature",
      "properties": {
        "@id": "node/1485848031",
        "amenity": "post_office",
        "brand": "Poste Italiane",
        "brand:wikidata": "Q495026",
        "brand:wikipedia": "en:Poste italiane",
        "name": "Milano 49",
        "opening_hours": "Mo-Fr 08:20-19:05, Sa 08:20-12:35",
        "operator": "Poste Italiane",
        "phone": "+39 02 3779 0911"
      },
      "geometry": {
        "type": "Point",
        "coordinates": [
          9.1711639,
          45.4960489
        ]
      },
      "id": "node/1485848031"
    },
    {
      "type": "Feature",
      "properties": {
        "@id": "node/1523164218",
        "addr:housenumber": "16",
        "addr:street": "Viale Piero e Alberto Pirelli",
        "amenity": "post_office",
        "brand": "Poste Italiane",
        "brand:wikidata": "Q495026",
        "brand:wikipedia": "en:Poste italiane",
        "name": "Poste Italiane",
        "opening_hours": "Mo-Fr 08:20-13:35, Sa 08:20-12:35",
        "operator": "Poste Italiane",
        "phone": "+39 02 6410 0200",
        "wheelchair": "yes"
      },
      "geometry": {
        "type": "Point",
        "coordinates": [
          9.2117664,
          45.5158535
        ]
      },
      "id": "node/1523164218"
    },
    {
      "type": "Feature",
      "properties": {
        "@id": "node/1524485367",
        "amenity": "bank",
        "atm": "yes",
        "name": "Banca Popolare di Milano"
      },
      "geometry": {
        "type": "Point",
        "coordinates": [
          9.1698719,
          45.5200671
        ]
      },
      "id": "node/1524485367"
    },
    {
      "type": "Feature",
      "properties": {
        "@id": "node/1524485447",
        "amenity": "bank",
        "atm": "yes",
        "name": "Banca Nazionale del Lavoro"
      },
      "geometry": {
        "type": "Point",
        "coordinates": [
          9.1695286,
          45.5205483
        ]
      },
      "id": "node/1524485447"
    },
    {
      "type": "Feature",
      "properties": {
        "@id": "node/1536576028",
        "addr:city": "Milano",
        "addr:country": "IT",
        "addr:housenumber": "12",
        "addr:postcode": "20161",
        "addr:street": "Via privata Andrea Vochieri",
        "amenity": "post_office",
        "fixme": "position not accurately checked",
        "name": "Milano 64",
        "operator": "Poste Italiane",
        "phone": "+39 02 66200116",
        "ref": "38/003"
      },
      "geometry": {
        "type": "Point",
        "coordinates": [
          9.1687779,
          45.5141511
        ]
      },
      "id": "node/1536576028"
    },
    {
      "type": "Feature",
      "properties": {
        "@id": "node/1576100378",
        "amenity": "bank",
        "atm": "yes",
        "brand": "Banca Popolare di Milano",
        "brand:en": "Popular Bank of Milan",
        "brand:it": "Banca Popolare di Milano",
        "brand:wikidata": "Q806154",
        "brand:wikipedia": "en:Banca Popolare di Milano",
        "name": "Banca Popolare di Milano",
        "name:en": "Popular Bank of Milan",
        "name:it": "Banca Popolare di Milano",
        "wheelchair": "yes"
      },
      "geometry": {
        "type": "Point",
        "coordinates": [
          9.1855974,
          45.4960782
        ]
      },
      "id": "node/1576100378"
    },
    {
      "type": "Feature",
      "properties": {
        "@id": "node/1596401462",
        "amenity": "bank",
        "atm": "yes",
        "name": "Banca Intesa Sanpaolo - agenzia Affori, via Bellerio 1",
        "operator": "Banca Intesa Sanpaolo"
      },
      "geometry": {
        "type": "Point",
        "coordinates": [
          9.1720093,
          45.5165006
        ]
      },
      "id": "node/1596401462"
    },
    {
      "type": "Feature",
      "properties": {
        "@id": "node/1962358139",
        "addr:city": "Milano",
        "addr:country": "IT",
        "addr:housenumber": "15/1",
        "addr:postcode": "20161",
        "addr:street": "Via Pellegrino Rossi",
        "amenity": "post_office",
        "fixme": "position not accurately checked",
        "name": "Milano 98",
        "operator": "Poste Italiane",
        "phone": "+39 02 6468700",
        "ref": "38547"
      },
      "geometry": {
        "type": "Point",
        "coordinates": [
          9.1771229,
          45.508427
        ]
      },
      "id": "node/1962358139"
    },
    {
      "type": "Feature",
      "properties": {
        "@id": "node/2054075849",
        "amenity": "atm",
        "operator": "Banca Popolare di Milano"
      },
      "geometry": {
        "type": "Point",
        "coordinates": [
          9.2021629,
          45.5082917
        ]
      },
      "id": "node/2054075849"
    },
    {
      "type": "Feature",
      "properties": {
        "@id": "node/2064784267",
        "amenity": "bank",
        "atm": "yes",
        "brand": "Crédit Agricole",
        "brand:wikidata": "Q590952",
        "brand:wikipedia": "fr:Crédit agricole",
        "name": "Crédit Agricole",
        "wheelchair": "yes"
      },
      "geometry": {
        "type": "Point",
        "coordinates": [
          9.1861037,
          45.4959358
        ]
      },
      "id": "node/2064784267"
    },
    {
      "type": "Feature",
      "properties": {
        "@id": "node/2097778114",
        "amenity": "bank",
        "fixme": "Position estimated",
        "name": "Monte dei Paschi di Siena"
      },
      "geometry": {
        "type": "Point",
        "coordinates": [
          9.1735166,
          45.5138342
        ]
      },
      "id": "node/2097778114"
    },
    {
      "type": "Feature",
      "properties": {
        "@id": "node/2103491996",
        "amenity": "bank",
        "atm": "yes",
        "brand": "BNL",
        "brand:wikidata": "Q2201225",
        "brand:wikipedia": "it:Banca Nazionale del Lavoro",
        "name": "BNL",
        "official_name": "Banca Nazionale del Lavoro",
        "official_name:en": "National Labor Bank",
        "official_name:it": "Banca Nazionale del Lavoro",
        "wheelchair": "yes"
      },
      "geometry": {
        "type": "Point",
        "coordinates": [
          9.1860022,
          45.4965093
        ]
      },
      "id": "node/2103491996"
    },
    {
      "type": "Feature",
      "properties": {
        "@id": "node/2103491997",
        "amenity": "bank",
        "brand": "Intesa Sanpaolo",
        "brand:wikidata": "Q1343118",
        "brand:wikipedia": "it:Intesa Sanpaolo",
        "name": "Intesa Sanpaolo",
        "wheelchair": "yes"
      },
      "geometry": {
        "type": "Point",
        "coordinates": [
          9.1849561,
          45.4971093
        ]
      },
      "id": "node/2103491997"
    },
    {
      "type": "Feature",
      "properties": {
        "@id": "node/2104097151",
        "amenity": "bank",
        "atm": "yes",
        "brand": "Banca Popolare di Novara",
        "brand:en": "Popular Bank of Novara",
        "brand:it": "Banca Popolare di Novara",
        "brand:wikidata": "Q3633742",
        "brand:wikipedia": "en:Banca Popolare di Novara",
        "name": "Banca Popolare di Novara",
        "name:en": "Popular Bank of Novara",
        "name:it": "Banca Popolare di Novara",
        "operator": "Banca Popolare di Novara",
        "wheelchair": "limited"
      },
      "geometry": {
        "type": "Point",
        "coordinates": [
          9.1854532,
          45.4943527
        ]
      },
      "id": "node/2104097151"
    },
    {
      "type": "Feature",
      "properties": {
        "@id": "node/2104112901",
        "addr:city": "Milano",
        "addr:country": "IT",
        "addr:housenumber": "47",
        "addr:postcode": "20159",
        "addr:street": "Via Carlo Farini",
        "amenity": "bank",
        "atm": "yes",
        "brand": "Banca Popolare di Sondrio",
        "brand:en": "Popular Bank of Sandrio",
        "brand:it": "Banca Popolare di Sondrio",
        "brand:wikidata": "Q686176",
        "brand:wikipedia": "en:Banca Popolare di Sondrio",
        "name": "Banca Popolare di Sondrio",
        "name:en": "Popular Bank of Sandrio",
        "name:it": "Banca Popolare di Sondrio",
        "wheelchair": "yes"
      },
      "geometry": {
        "type": "Point",
        "coordinates": [
          9.1837689,
          45.4913943
        ]
      },
      "id": "node/2104112901"
    },
    {
      "type": "Feature",
      "properties": {
        "@id": "node/2195525297",
        "amenity": "atm",
        "currency:EUR": "yes",
        "operator": "banca Intesa Sanpaolo"
      },
      "geometry": {
        "type": "Point",
        "coordinates": [
          9.21958,
          45.4963411
        ]
      },
      "id": "node/2195525297"
    },
    {
      "type": "Feature",
      "properties": {
        "@id": "node/2409311928",
        "amenity": "bank",
        "operator": "UniCredit"
      },
      "geometry": {
        "type": "Point",
        "coordinates": [
          9.206325,
          45.4944249
        ]
      },
      "id": "node/2409311928"
    },
    {
      "type": "Feature",
      "properties": {
        "@id": "node/2438744128",
        "addr:city": "Milano",
        "addr:country": "IT",
        "addr:housenumber": "13",
        "addr:postcode": "20159",
        "addr:street": "Viale Zara",
        "amenity": "bank",
        "atm": "yes",
        "brand": "Banca Popolare di Sondrio",
        "brand:en": "Popular Bank of Sandrio",
        "brand:it": "Banca Popolare di Sondrio",
        "brand:wikidata": "Q686176",
        "brand:wikipedia": "en:Banca Popolare di Sondrio",
        "name": "Banca Popolare di Sondrio",
        "name:en": "Popular Bank of Sandrio",
        "name:it": "Banca Popolare di Sondrio",
        "operator": "Banca Popolare di Sondrio",
        "wheelchair": "yes"
      },
      "geometry": {
        "type": "Point",
        "coordinates": [
          9.1916827,
          45.4913249
        ]
      },
      "id": "node/2438744128"
    },
    {
      "type": "Feature",
      "properties": {
        "@id": "node/2478217290",
        "amenity": "post_office",
        "name": "Milano 87",
        "operator": "Poste Italiane"
      },
      "geometry": {
        "type": "Point",
        "coordinates": [
          9.2025673,
          45.4965562
        ]
      },
      "id": "node/2478217290"
    },
    {
      "type": "Feature",
      "properties": {
        "@id": "node/2773073466",
        "amenity": "bank"
      },
      "geometry": {
        "type": "Point",
        "coordinates": [
          9.1709133,
          45.5182163
        ]
      },
      "id": "node/2773073466"
    },
    {
      "type": "Feature",
      "properties": {
        "@id": "node/2777576677",
        "amenity": "post_office",
        "name": "Milano 39",
        "opening_hours": "Mo-Fr 08:20-13:35; Sa 08:20-12:35"
      },
      "geometry": {
        "type": "Point",
        "coordinates": [
          9.1868312,
          45.495252
        ]
      },
      "id": "node/2777576677"
    },
    {
      "type": "Feature",
      "properties": {
        "@id": "node/2836084619",
        "amenity": "bank",
        "atm": "yes",
        "brand": "Intesa Sanpaolo",
        "brand:wikidata": "Q1343118",
        "brand:wikipedia": "it:Intesa Sanpaolo",
        "name": "Intesa Sanpaolo",
        "opening_hours": "Mo-Fr 08:30-13:00,14:15-16:55"
      },
      "geometry": {
        "type": "Point",
        "coordinates": [
          9.1768831,
          45.5034022
        ]
      },
      "id": "node/2836084619"
    },
    {
      "type": "Feature",
      "properties": {
        "@id": "node/3396636405",
        "amenity": "bank",
        "atm": "yes",
        "brand": "Credem",
        "brand:wikidata": "Q3696881",
        "brand:wikipedia": "en:Credito Emiliano",
        "name": "Credem"
      },
      "geometry": {
        "type": "Point",
        "coordinates": [
          9.1872392,
          45.4938657
        ]
      },
      "id": "node/3396636405"
    },
    {
      "type": "Feature",
      "properties": {
        "@id": "node/3396636411",
        "amenity": "bank",
        "brand": "Monte dei Paschi di Siena",
        "brand:wikidata": "Q46730",
        "brand:wikipedia": "en:Banca Monte dei Paschi di Siena",
        "name": "Monte dei Paschi di Siena"
      },
      "geometry": {
        "type": "Point",
        "coordinates": [
          9.1876918,
          45.4941046
        ]
      },
      "id": "node/3396636411"
    },
    {
      "type": "Feature",
      "properties": {
        "@id": "node/3396636412",
        "amenity": "bank",
        "atm": "yes",
        "operator": "Monte dei Paschi di Siena"
      },
      "geometry": {
        "type": "Point",
        "coordinates": [
          9.1875879,
          45.4941572
        ]
      },
      "id": "node/3396636412"
    },
    {
      "type": "Feature",
      "properties": {
        "@id": "node/3429944990",
        "addr:city": "Milano",
        "addr:country": "IT",
        "addr:housenumber": "6",
        "addr:street": "Piazza della Trivulziana",
        "amenity": "bank",
        "atm": "yes",
        "brand": "Banca Popolare di Sondrio",
        "brand:en": "Popular Bank of Sandrio",
        "brand:it": "Banca Popolare di Sondrio",
        "brand:wikidata": "Q686176",
        "brand:wikipedia": "en:Banca Popolare di Sondrio",
        "name": "Banca Popolare di Sondrio",
        "name:en": "Popular Bank of Sandrio",
        "name:it": "Banca Popolare di Sondrio",
        "wheelchair": "yes"
      },
      "geometry": {
        "type": "Point",
        "coordinates": [
          9.2126032,
          45.5149011
        ]
      },
      "id": "node/3429944990"
    },
    {
      "type": "Feature",
      "properties": {
        "@id": "node/3430787994",
        "amenity": "atm",
        "operator": "Poste Italiane"
      },
      "geometry": {
        "type": "Point",
        "coordinates": [
          9.2117516,
          45.5157805
        ]
      },
      "id": "node/3430787994"
    },
    {
      "type": "Feature",
      "properties": {
        "@id": "node/3578951316",
        "addr:city": "Milano",
        "addr:housenumber": "4",
        "addr:postcode": "20125",
        "addr:street": "Via Emilio De Marchi",
        "amenity": "bank",
        "atm": "yes",
        "brand": "BPER Banca",
        "brand:wikidata": "Q806167",
        "brand:wikipedia": "it:BPER Banca",
        "name": "BPER Banca",
        "official_name": "Banca Popolare dell'Emilia Romagna",
        "operator": "Banca Popolare dell'Emilia Romagna",
        "source": "local knowledge"
      },
      "geometry": {
        "type": "Point",
        "coordinates": [
          9.2085688,
          45.4982301
        ]
      },
      "id": "node/3578951316"
    },
    {
      "type": "Feature",
      "properties": {
        "@id": "node/3683614521",
        "addr:city": "Milano",
        "addr:country": "IT",
        "addr:housenumber": "28",
        "addr:postcode": "20127",
        "addr:street": "Via Luigi Varanini",
        "amenity": "post_office",
        "fax": "+39 02 28181647",
        "name": "Milano 45",
        "opening_hours": "Mo-Fr 08:20-19:05; Sa 08:20-12:35",
        "operator": "Poste Italiane",
        "phone": "+39 02 28181611",
        "ref": "38230"
      },
      "geometry": {
        "type": "Point",
        "coordinates": [
          9.2142554,
          45.493193
        ]
      },
      "id": "node/3683614521"
    },
    {
      "type": "Feature",
      "properties": {
        "@id": "node/3780581778",
        "addr:city": "Milano",
        "addr:country": "IT",
        "addr:postcode": "20125",
        "addr:street": "Via Comune Antico",
        "amenity": "post_office",
        "name": "Milano 72",
        "operator": "Poste Italiane",
        "phone": "+39 02 67070525"
      },
      "geometry": {
        "type": "Point",
        "coordinates": [
          9.209723,
          45.5022453
        ]
      },
      "id": "node/3780581778"
    },
    {
      "type": "Feature",
      "properties": {
        "@id": "node/3780582092",
        "addr:city": "Milano",
        "addr:country": "IT",
        "addr:housenumber": "2",
        "addr:postcode": "20125",
        "addr:street": "Via Giuseppe Bottelli",
        "amenity": "bank",
        "atm": "yes",
        "brand": "Banca Popolare di Milano",
        "brand:en": "Popular Bank of Milan",
        "brand:it": "Banca Popolare di Milano",
        "brand:wikidata": "Q806154",
        "brand:wikipedia": "en:Banca Popolare di Milano",
        "name": "Banca Popolare di Milano",
        "name:en": "Popular Bank of Milan",
        "name:it": "Banca Popolare di Milano"
      },
      "geometry": {
        "type": "Point",
        "coordinates": [
          9.2110251,
          45.5031055
        ]
      },
      "id": "node/3780582092"
    },
    {
      "type": "Feature",
      "properties": {
        "@id": "node/4142385604",
        "addr:city": "Milano",
        "addr:country": "IT",
        "addr:housenumber": "56",
        "addr:postcode": "20159",
        "addr:street": "Via Carlo Farini",
        "amenity": "bank",
        "brand": "Intesa Sanpaolo",
        "brand:wikidata": "Q1343118",
        "brand:wikipedia": "it:Intesa Sanpaolo",
        "name": "Intesa Sanpaolo",
        "wheelchair": "yes"
      },
      "geometry": {
        "type": "Point",
        "coordinates": [
          9.1846489,
          45.492575
        ]
      },
      "id": "node/4142385604"
    },
    {
      "type": "Feature",
      "properties": {
        "@id": "node/4424655803",
        "addr:city": "Milano",
        "addr:country": "IT",
        "addr:housenumber": "191",
        "addr:postcode": "20126",
        "addr:street": "Viale Sarca",
        "amenity": "bank",
        "brand": "Banca Popolare di Milano",
        "brand:en": "Popular Bank of Milan",
        "brand:it": "Banca Popolare di Milano",
        "brand:wikidata": "Q806154",
        "brand:wikipedia": "en:Banca Popolare di Milano",
        "name": "Banca Popolare di Milano",
        "name:en": "Popular Bank of Milan",
        "name:it": "Banca Popolare di Milano"
      },
      "geometry": {
        "type": "Point",
        "coordinates": [
          9.2092146,
          45.5168818
        ]
      },
      "id": "node/4424655803"
    },
    {
      "type": "Feature",
      "properties": {
        "@id": "node/4424655812",
        "addr:city": "Milano",
        "addr:country": "IT",
        "addr:housenumber": "181",
        "addr:postcode": "20126",
        "addr:street": "Viale Sarca",
        "amenity": "bank",
        "atm": "yes",
        "brand": "Intesa Sanpaolo",
        "brand:wikidata": "Q1343118",
        "brand:wikipedia": "it:Intesa Sanpaolo",
        "name": "Intesa Sanpaolo"
      },
      "geometry": {
        "type": "Point",
        "coordinates": [
          9.2086688,
          45.5159017
        ]
      },
      "id": "node/4424655812"
    },
    {
      "type": "Feature",
      "properties": {
        "@id": "node/4547858698",
        "amenity": "bank",
        "brand": "Banca Popolare di Milano",
        "brand:en": "Popular Bank of Milan",
        "brand:it": "Banca Popolare di Milano",
        "brand:wikidata": "Q806154",
        "brand:wikipedia": "en:Banca Popolare di Milano",
        "name": "Banca Popolare di Milano",
        "name:en": "Popular Bank of Milan",
        "name:it": "Banca Popolare di Milano"
      },
      "geometry": {
        "type": "Point",
        "coordinates": [
          9.2038842,
          45.495878
        ]
      },
      "id": "node/4547858698"
    },
    {
      "type": "Feature",
      "properties": {
        "@id": "node/4568360985",
        "amenity": "bank",
        "brand": "Banca Popolare di Milano",
        "brand:en": "Popular Bank of Milan",
        "brand:it": "Banca Popolare di Milano",
        "brand:wikidata": "Q806154",
        "brand:wikipedia": "en:Banca Popolare di Milano",
        "name": "Banca Popolare di Milano",
        "name:en": "Popular Bank of Milan",
        "name:it": "Banca Popolare di Milano",
        "opening_hours": "Mo-Fr 08:20-13:20,14:30-15:30"
      },
      "geometry": {
        "type": "Point",
        "coordinates": [
          9.2022157,
          45.5083298
        ]
      },
      "id": "node/4568360985"
    },
    {
      "type": "Feature",
      "properties": {
        "@id": "node/5015912540",
        "amenity": "atm",
        "operator": "Banque Chaabi du Maroc"
      },
      "geometry": {
        "type": "Point",
        "coordinates": [
          9.1957256,
          45.4919639
        ]
      },
      "id": "node/5015912540"
    },
    {
      "type": "Feature",
      "properties": {
        "@id": "node/5015912542",
        "addr:city": "Milano",
        "addr:country": "IT",
        "addr:housenumber": "14",
        "addr:postcode": "20124",
        "addr:street": "Viale Nazario Sauro",
        "amenity": "bank",
        "atm": "yes",
        "name": "Banque Chaabi du Maroc"
      },
      "geometry": {
        "type": "Point",
        "coordinates": [
          9.1957846,
          45.4919686
        ]
      },
      "id": "node/5015912542"
    },
    {
      "type": "Feature",
      "properties": {
        "@id": "node/5015912603",
        "addr:city": "Milano",
        "addr:country": "IT",
        "addr:housenumber": "44",
        "addr:postcode": "20124",
        "addr:street": "Via Abbadesse",
        "amenity": "bank",
        "brand": "Attijariwafa Bank",
        "brand:wikidata": "Q758052",
        "brand:wikipedia": "en:Attijariwafa Bank",
        "name": "Attijariwafa Bank"
      },
      "geometry": {
        "type": "Point",
        "coordinates": [
          9.194473,
          45.4925026
        ]
      },
      "id": "node/5015912603"
    },
    {
      "type": "Feature",
      "properties": {
        "@id": "node/5074923159",
        "amenity": "post_office",
        "brand": "Mail Boxes Etc.",
        "brand:wikidata": "Q1139182",
        "brand:wikipedia": "en:Mail Boxes Etc.",
        "name": "Mail Boxes Etc.",
        "operator": "Mail Boxes Etc."
      },
      "geometry": {
        "type": "Point",
        "coordinates": [
          9.1912222,
          45.4939973
        ]
      },
      "id": "node/5074923159"
    },
    {
      "type": "Feature",
      "properties": {
        "@id": "node/5074925193",
        "addr:city": "Milano",
        "addr:country": "IT",
        "addr:housenumber": "7",
        "addr:postcode": "20159",
        "addr:street": "Via Francesco Arese",
        "amenity": "bank",
        "name": "Credito Artigiano",
        "opening_hours": "Mo-Fr 08:30-16:15"
      },
      "geometry": {
        "type": "Point",
        "coordinates": [
          9.1908708,
          45.4915361
        ]
      },
      "id": "node/5074925193"
    },
    {
      "type": "Feature",
      "properties": {
        "@id": "node/5287291101",
        "amenity": "bank",
        "brand": "BNL",
        "brand:wikidata": "Q2201225",
        "brand:wikipedia": "it:Banca Nazionale del Lavoro",
        "name": "BNL",
        "official_name": "Banca Nazionale del Lavoro",
        "official_name:en": "National Labor Bank",
        "official_name:it": "Banca Nazionale del Lavoro"
      },
      "geometry": {
        "type": "Point",
        "coordinates": [
          9.2193183,
          45.4940443
        ]
      },
      "id": "node/5287291101"
    },
    {
      "type": "Feature",
      "properties": {
        "@id": "node/5555183610",
        "amenity": "atm",
        "operator": "Poste Italiane"
      },
      "geometry": {
        "type": "Point",
        "coordinates": [
          9.2088246,
          45.5228377
        ]
      },
      "id": "node/5555183610"
    },
    {
      "type": "Feature",
      "properties": {
        "@id": "node/5555183611",
        "amenity": "post_office",
        "name": "Ufficio Postale"
      },
      "geometry": {
        "type": "Point",
        "coordinates": [
          9.2087723,
          45.5228767
        ]
      },
      "id": "node/5555183611"
    },
    {
      "type": "Feature",
      "properties": {
        "@id": "node/5648198873",
        "amenity": "atm",
        "currency:EUR": "yes",
        "drive_through": "no",
        "operator": "Banca Popolare di Milano"
      },
      "geometry": {
        "type": "Point",
        "coordinates": [
          9.2164035,
          45.492347
        ]
      },
      "id": "node/5648198873"
    },
    {
      "type": "Feature",
      "properties": {
        "@id": "node/5664610529",
        "addr:city": "Milano",
        "addr:housenumber": "48",
        "addr:street": "Via Ponale",
        "amenity": "bank",
        "atm": "yes",
        "brand": "Intesa San Paolo",
        "level": "0",
        "name": "Intesa San Paolo"
      },
      "geometry": {
        "type": "Point",
        "coordinates": [
          9.2078886,
          45.5231055
        ]
      },
      "id": "node/5664610529"
    },
    {
      "type": "Feature",
      "properties": {
        "@id": "node/5694558328",
        "amenity": "post_office",
        "name": "Posta Express",
        "operator": "Posta Express"
      },
      "geometry": {
        "type": "Point",
        "coordinates": [
          9.2181945,
          45.4930027
        ]
      },
      "id": "node/5694558328"
    },
    {
      "type": "Feature",
      "properties": {
        "@id": "node/5694558347",
        "amenity": "bank",
        "atm": "yes",
        "brand": "Banca Popolare di Milano",
        "brand:en": "Popular Bank of Milan",
        "brand:it": "Banca Popolare di Milano",
        "brand:wikidata": "Q806154",
        "brand:wikipedia": "en:Banca Popolare di Milano",
        "name": "Banca Popolare di Milano",
        "name:en": "Popular Bank of Milan",
        "name:it": "Banca Popolare di Milano"
      },
      "geometry": {
        "type": "Point",
        "coordinates": [
          9.216392,
          45.4923183
        ]
      },
      "id": "node/5694558347"
    },
    {
      "type": "Feature",
      "properties": {
        "@id": "node/5694558558",
        "addr:city": "Milano",
        "addr:country": "IT",
        "addr:housenumber": "43/C",
        "addr:street": "Viale Monza",
        "amenity": "bank",
        "brand": "Intesa Sanpaolo",
        "brand:wikidata": "Q1343118",
        "brand:wikipedia": "it:Intesa Sanpaolo",
        "name": "Intesa Sanpaolo"
      },
      "geometry": {
        "type": "Point",
        "coordinates": [
          9.2179531,
          45.4909974
        ]
      },
      "id": "node/5694558558"
    },
    {
      "type": "Feature",
      "properties": {
        "@id": "node/7129448506",
        "amenity": "atm",
        "operator": "Intesa San Paolo"
      },
      "geometry": {
        "type": "Point",
        "coordinates": [
          9.1770579,
          45.5034035
        ]
      },
      "id": "node/7129448506"
    },
    {
      "type": "Feature",
      "properties": {
        "@id": "node/7129448507",
        "amenity": "atm",
        "operator": "BPM"
      },
      "geometry": {
        "type": "Point",
        "coordinates": [
          9.1764342,
          45.5032492
        ]
      },
      "id": "node/7129448507"
    },
    {
      "type": "Feature",
      "properties": {
        "@id": "node/7177698271",
        "amenity": "atm",
        "operator": "BPM"
      },
      "geometry": {
        "type": "Point",
        "coordinates": [
          9.1764649,
          45.5032046
        ]
      },
      "id": "node/7177698271"
    }
  ]
}