{
  "type": "FeatureCollection",
  "generator": "overpass-ide",
  "copyright": "The data included in this document is from www.openstreetmap.org. The data is made available under ODbL.",
  "timestamp": "2021-02-11T07:42:03Z",
  "features": [
    {
      "type": "Feature",
      "properties": {
        "@id": "node/247279522",
        "amenity": "pharmacy",
        "dispensing": "yes",
        "healthcare": "pharmacy",
        "name": "Falqui",
        "note": "tel. 02-6081221"
      },
      "geometry": {
        "type": "Point",
        "coordinates": [
          9.1969951,
          45.5007908
        ]
      },
      "id": "node/247279522"
    },
    {
      "type": "Feature",
      "properties": {
        "@id": "node/250048273",
        "amenity": "pharmacy",
        "dispensing": "yes",
        "healthcare": "pharmacy",
        "name": "A.F.M. COMUNALE N.32",
        "ref": "32"
      },
      "geometry": {
        "type": "Point",
        "coordinates": [
          9.2036128,
          45.4959347
        ]
      },
      "id": "node/250048273"
    },
    {
      "type": "Feature",
      "properties": {
        "@id": "node/250050262",
        "amenity": "pharmacy",
        "dispensing": "yes",
        "healthcare": "pharmacy"
      },
      "geometry": {
        "type": "Point",
        "coordinates": [
          9.206843,
          45.4948834
        ]
      },
      "id": "node/250050262"
    },
    {
      "type": "Feature",
      "properties": {
        "@id": "node/250050432",
        "amenity": "pharmacy",
        "dispensing": "yes",
        "healthcare": "pharmacy",
        "mapillary": "5_SKRlnWiJW8yLDhhohTVA",
        "name": "Comina",
        "survey:date": "2020-01-02"
      },
      "geometry": {
        "type": "Point",
        "coordinates": [
          9.2097556,
          45.5000089
        ]
      },
      "id": "node/250050432"
    },
    {
      "type": "Feature",
      "properties": {
        "@id": "node/250285697",
        "addr:city": "Milano",
        "addr:country": "IT",
        "addr:housenumber": "4",
        "addr:postcode": "20125",
        "addr:street": "Via Abbazia",
        "amenity": "pharmacy",
        "dispensing": "yes",
        "healthcare": "pharmacy",
        "name": "Farmacia Comunale N.64",
        "opening_hours": "Mo-Fr 08:30-12:00,15:30-19:30; Sa 09:00-13:00",
        "operator": "ADMENTA Italia S.p.A.",
        "phone": "+39 02 6886449",
        "ref": "64",
        "website": "http://www.epn.lloydsfarmacia.it/stores/farmacie-milano/milano-64"
      },
      "geometry": {
        "type": "Point",
        "coordinates": [
          9.1989025,
          45.5005982
        ]
      },
      "id": "node/250285697"
    },
    {
      "type": "Feature",
      "properties": {
        "@id": "node/251166969",
        "amenity": "pharmacy",
        "dispensing": "yes",
        "healthcare": "pharmacy",
        "name": "Taddei"
      },
      "geometry": {
        "type": "Point",
        "coordinates": [
          9.1928491,
          45.5022624
        ]
      },
      "id": "node/251166969"
    },
    {
      "type": "Feature",
      "properties": {
        "@id": "node/254662343",
        "amenity": "pharmacy",
        "dispensing": "yes",
        "healthcare": "pharmacy",
        "name": "Farmacia Suzzani"
      },
      "geometry": {
        "type": "Point",
        "coordinates": [
          9.198025,
          45.5063975
        ]
      },
      "id": "node/254662343"
    },
    {
      "type": "Feature",
      "properties": {
        "@id": "node/261563584",
        "amenity": "pharmacy",
        "dispensing": "yes",
        "healthcare": "pharmacy"
      },
      "geometry": {
        "type": "Point",
        "coordinates": [
          9.1940388,
          45.5153231
        ]
      },
      "id": "node/261563584"
    },
    {
      "type": "Feature",
      "properties": {
        "@id": "node/280572155",
        "amenity": "pharmacy",
        "dispensing": "yes",
        "healthcare": "pharmacy",
        "name": "Macchi"
      },
      "geometry": {
        "type": "Point",
        "coordinates": [
          9.2120587,
          45.4997816
        ]
      },
      "id": "node/280572155"
    },
    {
      "type": "Feature",
      "properties": {
        "@id": "node/281449716",
        "amenity": "pharmacy",
        "dispensing": "yes",
        "healthcare": "pharmacy",
        "name": "Farmacia Pesenti"
      },
      "geometry": {
        "type": "Point",
        "coordinates": [
          9.1761108,
          45.5023385
        ]
      },
      "id": "node/281449716"
    },
    {
      "type": "Feature",
      "properties": {
        "@id": "node/289646177",
        "addr:city": "Milano",
        "addr:country": "IT",
        "addr:housenumber": "90",
        "addr:postcode": "20126",
        "addr:street": "Viale Fulvio Testi",
        "alt_name": "Farmacia Essere Benessere",
        "amenity": "pharmacy",
        "dispensing": "yes",
        "healthcare": "pharmacy",
        "name": "Farmacia Fulvio Testi",
        "opening_hours": "24/7",
        "operator": "Codella Maria A. & C. S.a.s.",
        "phone": "+39 02 6420052"
      },
      "geometry": {
        "type": "Point",
        "coordinates": [
          9.2044026,
          45.5120915
        ]
      },
      "id": "node/289646177"
    },
    {
      "type": "Feature",
      "properties": {
        "@id": "node/310772644",
        "amenity": "pharmacy",
        "dispensing": "yes",
        "healthcare": "pharmacy",
        "name": "Lloyds farmacia comunale 16",
        "ref": "16"
      },
      "geometry": {
        "type": "Point",
        "coordinates": [
          9.2029905,
          45.5161175
        ]
      },
      "id": "node/310772644"
    },
    {
      "type": "Feature",
      "properties": {
        "@id": "node/365547375",
        "amenity": "pharmacy",
        "dispensing": "yes",
        "name": "A.F.M. COMUNALE N.41"
      },
      "geometry": {
        "type": "Point",
        "coordinates": [
          9.2066697,
          45.5225744
        ]
      },
      "id": "node/365547375"
    },
    {
      "type": "Feature",
      "properties": {
        "@id": "node/1300766854",
        "addr:city": "Milano",
        "addr:country": "IT",
        "addr:housenumber": "14",
        "addr:postcode": "20127",
        "addr:street": "Via Rovereto",
        "amenity": "pharmacy",
        "description": "Farmacia cosmesi eopatia",
        "email": "farmacia.bandi@fastwebnet.it",
        "healthcare": "pharmacy",
        "name": "Farmacia Bandi",
        "opening_hours": "Mo-Fr 08:30-13:30,15:30-19:30; Sa 15:00-19:00",
        "phone": "+39 02 2846767",
        "website": "http://www.farmaciabandi.it/"
      },
      "geometry": {
        "type": "Point",
        "coordinates": [
          9.2196078,
          45.4950448
        ]
      },
      "id": "node/1300766854"
    },
    {
      "type": "Feature",
      "properties": {
        "@id": "node/1352199583",
        "addr:city": "Milano",
        "addr:country": "IT",
        "addr:housenumber": "6",
        "addr:postcode": "20126",
        "addr:street": "Via San Glicerio",
        "amenity": "pharmacy",
        "dispensing": "yes",
        "mapillary": "1YAYRSCI5A8OeOtPq5WGEQ",
        "name": "Farmacia Gandolfo Dottor Maddalena",
        "opening_hours": "Mo-Sa 09:00-20:00",
        "survey:date": "2018-02-15"
      },
      "geometry": {
        "type": "Point",
        "coordinates": [
          9.2084047,
          45.5181725
        ]
      },
      "id": "node/1352199583"
    },
    {
      "type": "Feature",
      "properties": {
        "@id": "node/1529820731",
        "addr:city": "Milano",
        "addr:country": "IT",
        "addr:housenumber": "3",
        "addr:postcode": "20161",
        "addr:street": "Via Alessandro Zanoli",
        "amenity": "pharmacy",
        "dispensing": "yes",
        "name": "Farmacia Affori"
      },
      "geometry": {
        "type": "Point",
        "coordinates": [
          9.1721866,
          45.515724
        ]
      },
      "id": "node/1529820731"
    },
    {
      "type": "Feature",
      "properties": {
        "@id": "node/1529820749",
        "addr:city": "Milano",
        "addr:country": "IT",
        "addr:housenumber": "10",
        "addr:postcode": "20161",
        "addr:street": "Viale Affori",
        "amenity": "pharmacy",
        "dispensing": "yes",
        "note": "position approximate"
      },
      "geometry": {
        "type": "Point",
        "coordinates": [
          9.1710111,
          45.5170723
        ]
      },
      "id": "node/1529820749"
    },
    {
      "type": "Feature",
      "properties": {
        "@id": "node/1860872090",
        "amenity": "pharmacy",
        "dispensing": "yes",
        "healthcare": "pharmacy",
        "name": "Farmacia Nizza",
        "wheelchair": "yes"
      },
      "geometry": {
        "type": "Point",
        "coordinates": [
          9.1893151,
          45.5027068
        ]
      },
      "id": "node/1860872090"
    },
    {
      "type": "Feature",
      "properties": {
        "@id": "node/1860872116",
        "amenity": "pharmacy",
        "dispensing": "yes",
        "healthcare": "pharmacy",
        "note": "Farmacia Comunale"
      },
      "geometry": {
        "type": "Point",
        "coordinates": [
          9.1916746,
          45.4970521
        ]
      },
      "id": "node/1860872116"
    },
    {
      "type": "Feature",
      "properties": {
        "@id": "node/2066454738",
        "amenity": "pharmacy",
        "healthcare": "pharmacy",
        "wheelchair": "yes"
      },
      "geometry": {
        "type": "Point",
        "coordinates": [
          9.2116497,
          45.5146282
        ]
      },
      "id": "node/2066454738"
    },
    {
      "type": "Feature",
      "properties": {
        "@id": "node/2104097109",
        "amenity": "pharmacy",
        "dispensing": "yes",
        "fixme": "Position estimated",
        "healthcare": "pharmacy",
        "name": "Farmacia Maccioni",
        "wheelchair": "no"
      },
      "geometry": {
        "type": "Point",
        "coordinates": [
          9.1847219,
          45.4935615
        ]
      },
      "id": "node/2104097109"
    },
    {
      "type": "Feature",
      "properties": {
        "@id": "node/2195525295",
        "addr:city": "Milano",
        "addr:country": "IT",
        "addr:housenumber": "2",
        "addr:street": "Via Fratelli Lumière",
        "amenity": "pharmacy",
        "dispensing": "yes",
        "healthcare": "pharmacy",
        "name": "Farmacia Dottor Barni"
      },
      "geometry": {
        "type": "Point",
        "coordinates": [
          9.2125797,
          45.4913598
        ]
      },
      "id": "node/2195525295"
    },
    {
      "type": "Feature",
      "properties": {
        "@id": "node/2195525296",
        "amenity": "pharmacy",
        "dispensing": "yes",
        "healthcare": "pharmacy"
      },
      "geometry": {
        "type": "Point",
        "coordinates": [
          9.2160559,
          45.4930349
        ]
      },
      "id": "node/2195525296"
    },
    {
      "type": "Feature",
      "properties": {
        "@id": "node/2419111883",
        "addr:city": "Milano",
        "addr:country": "IT",
        "addr:housenumber": "38",
        "addr:postcode": "20124",
        "addr:street": "Viale Zara",
        "amenity": "pharmacy",
        "contact:phone": "+39 02 6081454",
        "dispensing": "yes",
        "fixme": "opening time to be checked. For sure open every night, but it can be not 24/7 8as it can be close one day a week during daytime)",
        "healthcare": "pharmacy",
        "name": "Farmacia Caddeo",
        "ref:vatin": "IT09290410159",
        "wheelchair": "yes"
      },
      "geometry": {
        "type": "Point",
        "coordinates": [
          9.1930287,
          45.4920775
        ]
      },
      "id": "node/2419111883"
    },
    {
      "type": "Feature",
      "properties": {
        "@id": "node/2419130561",
        "addr:city": "Milano",
        "addr:housenumber": "19",
        "addr:street": "Via Genova Thaon Di Revel",
        "amenity": "pharmacy",
        "dispensing": "yes",
        "healthcare": "pharmacy",
        "wheelchair": "yes"
      },
      "geometry": {
        "type": "Point",
        "coordinates": [
          9.1881605,
          45.4930043
        ]
      },
      "id": "node/2419130561"
    },
    {
      "type": "Feature",
      "properties": {
        "@id": "node/2603562787",
        "amenity": "dentist",
        "brand": "Vitaldent",
        "brand:wikidata": "Q5860599",
        "brand:wikipedia": "es:Vitaldent",
        "healthcare": "dentist",
        "name": "Vitaldent"
      },
      "geometry": {
        "type": "Point",
        "coordinates": [
          9.2200081,
          45.4963506
        ]
      },
      "id": "node/2603562787"
    },
    {
      "type": "Feature",
      "properties": {
        "@id": "node/2715483894",
        "amenity": "doctors",
        "name": "Azienda Sanitaria Locale - Distretto n. 3 - Consultorio Pediatrico"
      },
      "geometry": {
        "type": "Point",
        "coordinates": [
          9.2101135,
          45.4966178
        ]
      },
      "id": "node/2715483894"
    },
    {
      "type": "Feature",
      "properties": {
        "@id": "node/2719663639",
        "amenity": "dentist",
        "healthcare": "dentist",
        "name": "Centro Medico Odontoiatrico",
        "opening_hours": "Tu-Fr 09:29-19:00; Mo 14:30-19:00; Sa 09:30-12:30"
      },
      "geometry": {
        "type": "Point",
        "coordinates": [
          9.1915245,
          45.4916126
        ]
      },
      "id": "node/2719663639"
    },
    {
      "type": "Feature",
      "properties": {
        "@id": "node/2746601922",
        "addr:city": "Milano",
        "addr:housenumber": "24",
        "addr:postcode": "20158",
        "addr:street": "Piazzale Carlo Maciachini",
        "amenity": "pharmacy",
        "dispensing": "yes",
        "healthcare": "pharmacy",
        "name": "Farmacia Rondò"
      },
      "geometry": {
        "type": "Point",
        "coordinates": [
          9.1840142,
          45.4975689
        ]
      },
      "id": "node/2746601922"
    },
    {
      "type": "Feature",
      "properties": {
        "@id": "node/2747799973",
        "amenity": "veterinary"
      },
      "geometry": {
        "type": "Point",
        "coordinates": [
          9.1858718,
          45.4990639
        ]
      },
      "id": "node/2747799973"
    },
    {
      "type": "Feature",
      "properties": {
        "@id": "node/2836034945",
        "amenity": "pharmacy",
        "dispensing": "yes",
        "name": "Farmacia Sant'Antonio"
      },
      "geometry": {
        "type": "Point",
        "coordinates": [
          9.1761232,
          45.5105777
        ]
      },
      "id": "node/2836034945"
    },
    {
      "type": "Feature",
      "properties": {
        "@id": "node/2852784538",
        "addr:housenumber": "22",
        "addr:street": "Via Alessandro Astesani",
        "amenity": "dentist",
        "contact:phone": "+39 02 6456791",
        "name": "studio Dentistico dott. Fabio Colombo dott. Chiara Pulici"
      },
      "geometry": {
        "type": "Point",
        "coordinates": [
          9.1710673,
          45.5180284
        ]
      },
      "id": "node/2852784538"
    },
    {
      "type": "Feature",
      "properties": {
        "@id": "node/2972714787",
        "addr:city": "Milano",
        "addr:housenumber": "14",
        "addr:street": "Via Gian Rinaldo Carli",
        "amenity": "pharmacy",
        "contact:phone": "+39 02 66202814",
        "dispensing": "yes",
        "name": "Lloyds Farmacia - farmacia 21",
        "opening_hours": "Mo-Tu 08:30-13:00, 15:00-19:30; We 08:30-19:30; Th-Fr 08:30-13:00, 15:00-19:30; Sa 08:30-13:00, 15:00-19:00; Su 09:00-13:00, 15:30-19:30",
        "operator": "Azienda Farmacia Milanesi S.p.A.",
        "ref:vatin": "IT13195220150",
        "start_date": "2014-07-21",
        "website": "https://www.lloydsfarmacia.it/store-locator/milano/lloyds-farmacia-via-gian-rinaldo-carli---farmacia-n--21"
      },
      "geometry": {
        "type": "Point",
        "coordinates": [
          9.1714152,
          45.5210284
        ]
      },
      "id": "node/2972714787"
    },
    {
      "type": "Feature",
      "properties": {
        "@id": "node/3935592357",
        "addr:city": "Milano",
        "addr:country": "IT",
        "addr:housenumber": "78",
        "addr:postcode": "20125",
        "addr:street": "Via Arbe",
        "amenity": "doctors",
        "healthcare": "doctor",
        "name": "Poliambulatorio Arbe 78"
      },
      "geometry": {
        "type": "Point",
        "coordinates": [
          9.199689,
          45.5008141
        ]
      },
      "id": "node/3935592357"
    },
    {
      "type": "Feature",
      "properties": {
        "@id": "node/4277857369",
        "addr:city": "Milano",
        "addr:country": "IT",
        "addr:housenumber": "5",
        "addr:street": "Via Perrone di San Martino",
        "amenity": "doctors",
        "healthcare": "doctor",
        "name": "Medical Rent"
      },
      "geometry": {
        "type": "Point",
        "coordinates": [
          9.2022345,
          45.4975908
        ]
      },
      "id": "node/4277857369"
    },
    {
      "type": "Feature",
      "properties": {
        "@id": "node/4424655802",
        "addr:city": "Milano",
        "addr:country": "IT",
        "addr:housenumber": "163",
        "addr:postcode": "20126",
        "addr:street": "Viale Sarca",
        "amenity": "veterinary",
        "name": "Ambulatorio Veterinario Sarca"
      },
      "geometry": {
        "type": "Point",
        "coordinates": [
          9.2081682,
          45.5150404
        ]
      },
      "id": "node/4424655802"
    },
    {
      "type": "Feature",
      "properties": {
        "@id": "node/4583011052",
        "amenity": "dentist",
        "healthcare": "dentist",
        "name": "Doctor Dentist"
      },
      "geometry": {
        "type": "Point",
        "coordinates": [
          9.1843106,
          45.4971748
        ]
      },
      "id": "node/4583011052"
    },
    {
      "type": "Feature",
      "properties": {
        "@id": "node/4621724522",
        "addr:city": "Milano",
        "addr:country": "IT",
        "addr:housenumber": "4",
        "addr:postcode": "20125",
        "addr:street": "Via Gino Pollini",
        "amenity": "social_facility",
        "name": "Casa Accoglienza Elio Fiorucci",
        "operator": "City Angels",
        "social_facility:for": "homeless"
      },
      "geometry": {
        "type": "Point",
        "coordinates": [
          9.2064294,
          45.507642
        ]
      },
      "id": "node/4621724522"
    },
    {
      "type": "Feature",
      "properties": {
        "@id": "node/4820246135",
        "amenity": "pharmacy",
        "healthcare": "pharmacy",
        "name": "Farmacia San Luca",
        "opening_hours": "Mo-Su 15:30-20:00, Tu-Su 08:30-12:30"
      },
      "geometry": {
        "type": "Point",
        "coordinates": [
          9.1703916,
          45.5030218
        ]
      },
      "id": "node/4820246135"
    },
    {
      "type": "Feature",
      "properties": {
        "@id": "node/4857506862",
        "amenity": "doctors",
        "healthcare": "doctor"
      },
      "geometry": {
        "type": "Point",
        "coordinates": [
          9.2070661,
          45.5144217
        ]
      },
      "id": "node/4857506862"
    },
    {
      "type": "Feature",
      "properties": {
        "@id": "node/4916304420",
        "addr:city": "Milano",
        "addr:street": "Viale Zara",
        "amenity": "pharmacy",
        "dispensing": "no",
        "healthcare": "pharmacy",
        "mapillary": "8GBxXYgH0PISVf914wp5Hg",
        "name": "Parafarmacia",
        "survey:date": "2020-01-05"
      },
      "geometry": {
        "type": "Point",
        "coordinates": [
          9.1964772,
          45.4983143
        ]
      },
      "id": "node/4916304420"
    },
    {
      "type": "Feature",
      "properties": {
        "@id": "node/4916562286",
        "addr:city": "Milano",
        "addr:housenumber": "13",
        "addr:postcode": "20159",
        "addr:street": "Via Gioacchino Murat",
        "amenity": "clinic",
        "description": "Poliambulatorio",
        "healthcare": "clinic",
        "name": "Humanitas Care - Milano Murat",
        "start_date": "2019-10-12"
      },
      "geometry": {
        "type": "Point",
        "coordinates": [
          9.1912918,
          45.4977945
        ]
      },
      "id": "node/4916562286"
    },
    {
      "type": "Feature",
      "properties": {
        "@id": "node/4945986271",
        "amenity": "veterinary"
      },
      "geometry": {
        "type": "Point",
        "coordinates": [
          9.1985218,
          45.4949412
        ]
      },
      "id": "node/4945986271"
    },
    {
      "type": "Feature",
      "properties": {
        "@id": "node/5287290876",
        "amenity": "dentist",
        "healthcare": "dentist",
        "name": "Doctor Dentist"
      },
      "geometry": {
        "type": "Point",
        "coordinates": [
          9.2189723,
          45.4944128
        ]
      },
      "id": "node/5287290876"
    },
    {
      "type": "Feature",
      "properties": {
        "@id": "node/5450826090",
        "addr:city": "Milano",
        "addr:housenumber": "63",
        "addr:street": "Viale Monza",
        "amenity": "pharmacy",
        "dispensing": "yes",
        "fax": "+39 02 39292713",
        "healthcare": "pharmacy",
        "name": "Farmacia Confalonieri",
        "opening_hours": "Mo-Fr 08:30-13:00,15:00-19:30",
        "phone": "+39 02 2847168",
        "website": "https://www.farmaciaconfalonieri.it/"
      },
      "geometry": {
        "type": "Point",
        "coordinates": [
          9.21857,
          45.493123
        ]
      },
      "id": "node/5450826090"
    },
    {
      "type": "Feature",
      "properties": {
        "@id": "node/5867604097",
        "amenity": "veterinary",
        "fixme": "location is approximate"
      },
      "geometry": {
        "type": "Point",
        "coordinates": [
          9.1729185,
          45.5159167
        ]
      },
      "id": "node/5867604097"
    },
    {
      "type": "Feature",
      "properties": {
        "@id": "node/5977912123",
        "amenity": "clinic",
        "healthcare": "clinic",
        "name": "Omnia Medical Center",
        "website": "https://www.centriomnia.it"
      },
      "geometry": {
        "type": "Point",
        "coordinates": [
          9.1739754,
          45.5159133
        ]
      },
      "id": "node/5977912123"
    },
    {
      "type": "Feature",
      "properties": {
        "@id": "node/6514991637",
        "amenity": "social_facility",
        "email": "info@associazioneparatodos.com",
        "name": "Associazione Para Todos",
        "opening_hours": "Mo-Fr 14:00-19:00",
        "phone": "+39 328 97 64 314; +39 02 99 29 1984",
        "social_facility": "outreach",
        "social_facility:for": "migrant",
        "website": "http://www.associazioneparatodos.it/"
      },
      "geometry": {
        "type": "Point",
        "coordinates": [
          9.2187404,
          45.4912632
        ]
      },
      "id": "node/6514991637"
    },
    {
      "type": "Feature",
      "properties": {
        "@id": "node/6514991640",
        "amenity": "social_facility",
        "name": "Ambulatorio Popolare",
        "social_facility": "ambulatory_care",
        "social_facility:for": "underprivileged"
      },
      "geometry": {
        "type": "Point",
        "coordinates": [
          9.2189212,
          45.4912533
        ]
      },
      "id": "node/6514991640"
    },
    {
      "type": "Feature",
      "properties": {
        "@id": "node/7397201338",
        "addr:city": "Milano",
        "addr:postcode": "20161",
        "addr:street": "Via Pellegrino Rossi",
        "amenity": "pharmacy",
        "dispensing": "no",
        "healthcare": "pharmacy",
        "name": "Parafarmacia Esselunga",
        "opening_hours": "Mo-Sa 08:00-21:00; Su, PH 09:00-20:00",
        "operator": "Esselunga",
        "website": "https://www.esselunga.it/cms/negozi/parafarmacia.html"
      },
      "geometry": {
        "type": "Point",
        "coordinates": [
          9.1738104,
          45.5126437
        ]
      },
      "id": "node/7397201338"
    },
    {
      "type": "Feature",
      "properties": {
        "@id": "node/7515326324",
        "amenity": "pharmacy",
        "healthcare": "pharmacy",
        "name": "Lloyds Farmacia"
      },
      "geometry": {
        "type": "Point",
        "coordinates": [
          9.1920854,
          45.5183398
        ]
      },
      "id": "node/7515326324"
    }
  ]
}