{
  "type": "FeatureCollection",
  "generator": "overpass-ide",
  "copyright": "The data included in this document is from www.openstreetmap.org. The data is made available under ODbL.",
  "timestamp": "2021-02-11T07:43:03Z",
  "features": [
    {
      "type": "Feature",
      "properties": {
        "@id": "node/250051812",
        "amenity": "cinema",
        "name": "Europlex Bicocca",
        "wheelchair": "limited"
      },
      "geometry": {
        "type": "Point",
        "coordinates": [
          9.2161433,
          45.5219373
        ]
      },
      "id": "node/250051812"
    },
    {
      "type": "Feature",
      "properties": {
        "@id": "node/279829028",
        "amenity": "theatre",
        "name": "Greco"
      },
      "geometry": {
        "type": "Point",
        "coordinates": [
          9.2121145,
          45.5022959
        ]
      },
      "id": "node/279829028"
    },
    {
      "type": "Feature",
      "properties": {
        "@id": "node/2214966885",
        "addr:city": "Milano",
        "addr:country": "IT",
        "addr:housenumber": "82",
        "addr:street": "Viale Monza",
        "amenity": "gambling",
        "description": "sala giochi, sala slot",
        "name": "Las Vegas"
      },
      "geometry": {
        "type": "Point",
        "coordinates": [
          9.2199015,
          45.4959698
        ]
      },
      "id": "node/2214966885"
    },
    {
      "type": "Feature",
      "properties": {
        "@id": "node/2491568216",
        "addr:city": "Milano",
        "addr:housenumber": "21",
        "addr:postcode": "20159",
        "addr:street": "Via Gian Antonio Boltraffio",
        "amenity": "theatre",
        "email": "fontana.teatro@elsinor.net",
        "name": "Teatro Sala Fontana",
        "phone": "+39 02 69015733",
        "website": "http://www.teatrosalafontana.it/home.html"
      },
      "geometry": {
        "type": "Point",
        "coordinates": [
          9.1877282,
          45.4921959
        ]
      },
      "id": "node/2491568216"
    },
    {
      "type": "Feature",
      "properties": {
        "@id": "node/4935439070",
        "amenity": "theatre",
        "name": "anfiteatro"
      },
      "geometry": {
        "type": "Point",
        "coordinates": [
          9.1763781,
          45.4989663
        ]
      },
      "id": "node/4935439070"
    },
    {
      "type": "Feature",
      "properties": {
        "@id": "node/4985229431",
        "addr:city": "Milano",
        "addr:country": "IT",
        "addr:housenumber": "38",
        "addr:postcode": "20159",
        "addr:street": "Viale Marche",
        "amenity": "gambling",
        "gambling": "slot_machines",
        "name": "Bingo Zara Milano"
      },
      "geometry": {
        "type": "Point",
        "coordinates": [
          9.1941136,
          45.495869
        ]
      },
      "id": "node/4985229431"
    },
    {
      "type": "Feature",
      "properties": {
        "@id": "node/5694558348",
        "amenity": "gambling",
        "gambling": "slot_machines"
      },
      "geometry": {
        "type": "Point",
        "coordinates": [
          9.2164376,
          45.4924179
        ]
      },
      "id": "node/5694558348"
    },
    {
      "type": "Feature",
      "properties": {
        "@id": "node/5694558531",
        "amenity": "gambling",
        "gambling": "slot_machines"
      },
      "geometry": {
        "type": "Point",
        "coordinates": [
          9.2186826,
          45.4920268
        ]
      },
      "id": "node/5694558531"
    },
    {
      "type": "Feature",
      "properties": {
        "@id": "node/6305238238",
        "amenity": "studio",
        "name": "Radio Millennium"
      },
      "geometry": {
        "type": "Point",
        "coordinates": [
          9.1811469,
          45.5011743
        ]
      },
      "id": "node/6305238238"
    },
    {
      "type": "Feature",
      "properties": {
        "@id": "node/7112280578",
        "addr:housenumber": "114",
        "addr:street": "Via Giovanni Battista Sammartini",
        "amenity": "community_centre",
        "name": "Rifugio Caritas Ambrosiana"
      },
      "geometry": {
        "type": "Point",
        "coordinates": [
          9.2139239,
          45.4973178
        ]
      },
      "id": "node/7112280578"
    },
    {
      "type": "Feature",
      "properties": {
        "@id": "node/7707210113",
        "amenity": "theatre",
        "name": "Teatro della Cooperativa"
      },
      "geometry": {
        "type": "Point",
        "coordinates": [
          9.1907521,
          45.5149131
        ]
      },
      "id": "node/7707210113"
    }
  ]
}