{"type":"FeatureCollection","features":[{"type":"Feature","id":"way/25350001","properties":{"type":"way","id":25350001,"tags":{"amenity":"place_of_worship","building":"church","denomination":"catholic","name":"Chiesa di San Carlo alla Ca' Granda","religion":"christian"},"relations":[],"meta":{},"geometry":"center","amenity":"place_of_worship","building":"church","denomination":"catholic","name":"Chiesa di San Carlo alla Ca' Granda","religion":"christian"},"geometry":{"type":"Point","coordinates":[9.192914,45.5061965]}},{"type":"Feature","id":"way/25350197","properties":{"type":"way","id":25350197,"tags":{"amenity":"place_of_worship","building":"yes","denomination":"catholic","religion":"christian"},"relations":[],"meta":{},"geometry":"center","amenity":"place_of_worship","building":"yes","denomination":"catholic","religion":"christian"},"geometry":{"type":"Point","coordinates":[9.1854313,45.5100365]}},{"type":"Feature","id":"way/35839780","properties":{"type":"way","id":35839780,"tags":{"addr:city":"Milano","addr:country":"IT","addr:housenumber":"1","addr:street":"Largo San Dionigi in Pratocentenaro","amenity":"place_of_worship","building":"church","denomination":"catholic","name":"San Dionigi in Santi Clemente e Guido","religion":"christian","wikidata":"Q3669853"},"relations":[],"meta":{},"geometry":"center","addr:city":"Milano","addr:country":"IT","addr:housenumber":"1","addr:street":"Largo San Dionigi in Pratocentenaro","amenity":"place_of_worship","building":"church","denomination":"catholic","name":"San Dionigi in Santi Clemente e Guido","religion":"christian","wikidata":"Q3669853"},"geometry":{"type":"Point","coordinates":[9.1985474,45.508666]}},{"type":"Feature","id":"way/51353025","properties":{"type":"way","id":51353025,"tags":{"amenity":"place_of_worship","building":"yes","denomination":"catholic","religion":"christian"},"relations":[],"meta":{},"geometry":"center","amenity":"place_of_worship","building":"yes","denomination":"catholic","religion":"christian"},"geometry":{"type":"Point","coordinates":[9.179128,45.5119708]}},{"type":"Feature","id":"way/136184352","properties":{"type":"way","id":136184352,"tags":{"amenity":"place_of_worship","building":"church","name":"Maria di Fatima","religion":"christian"},"relations":[],"meta":{},"geometry":"center","amenity":"place_of_worship","building":"church","name":"Maria di Fatima","religion":"christian"},"geometry":{"type":"Point","coordinates":[9.1796795,45.5218438]}},{"type":"Feature","id":"way/142694454","properties":{"type":"way","id":142694454,"tags":{"addr:city":"Milano","addr:housenumber":"5","addr:postcode":"20162","addr:street":"Piazza Belloveso","amenity":"place_of_worship","building":"church","denomination":"catholic","name":"San Martino in Niguarda","religion":"christian"},"relations":[],"meta":{},"geometry":"center","addr:city":"Milano","addr:housenumber":"5","addr:postcode":"20162","addr:street":"Piazza Belloveso","amenity":"place_of_worship","building":"church","denomination":"catholic","name":"San Martino in Niguarda","religion":"christian"},"geometry":{"type":"Point","coordinates":[9.1950675,45.5157631]}},{"type":"Feature","id":"way/163863025","properties":{"type":"way","id":163863025,"tags":{"amenity":"place_of_worship","building":"church","denomination":"catholic","name":"San Giovanni Battista alla Bicocca","religion":"christian"},"relations":[],"meta":{},"geometry":"center","amenity":"place_of_worship","building":"church","denomination":"catholic","name":"San Giovanni Battista alla Bicocca","religion":"christian"},"geometry":{"type":"Point","coordinates":[9.2069864,45.5159655]}},{"type":"Feature","id":"way/352969937","properties":{"type":"way","id":352969937,"tags":{"amenity":"place_of_worship","building":"chapel","denomination":"catholic","name":"Cappella di Sant'Antonino in Segnano","religion":"christian"},"relations":[],"meta":{},"geometry":"center","amenity":"place_of_worship","building":"chapel","denomination":"catholic","name":"Cappella di Sant'Antonino in Segnano","religion":"christian"},"geometry":{"type":"Point","coordinates":[9.207671,45.5076]}}]}