{"type":"FeatureCollection","features":[{"type":"Feature","id":"node/1236387781","properties":{"type":"node","id":1236387781,"tags":{"amenity":"toilets"},"relations":[],"meta":{},"amenity":"toilets"},"geometry":{"type":"Point","coordinates":[9.1996404,45.5214975]}},{"type":"Feature","id":"node/1705281767","properties":{"type":"node","id":1705281767,"tags":{"amenity":"toilets","description":"3 WC chimici","fee":"no","operator":"AMSA","wheelchair":"yes"},"relations":[],"meta":{},"amenity":"toilets","description":"3 WC chimici","fee":"no","operator":"AMSA","wheelchair":"yes"},"geometry":{"type":"Point","coordinates":[9.204898,45.5202241]}},{"type":"Feature","id":"node/2414857036","properties":{"type":"node","id":2414857036,"tags":{"amenity":"toilets"},"relations":[],"meta":{},"amenity":"toilets"},"geometry":{"type":"Point","coordinates":[9.1781359,45.5215176]}},{"type":"Feature","id":"way/114549025","properties":{"type":"way","id":114549025,"tags":{"amenity":"toilets","building":"service"},"relations":[],"meta":{},"geometry":"center","amenity":"toilets","building":"service"},"geometry":{"type":"Point","coordinates":[9.2140115,45.5126194]}}]}